{"crs":{"properties":{"name":"urn:ogc:def:crs:OGC:1.3:CRS84"},"type":"name"},"features":[{"geometry":{"coordinates":[-73.5895841,6.1785935],"type":"Point"},"properties":{"acueductos_reportados_por_raya":17,"ancla_osm_nombre":"La Paz","ancla_osm_tipo_lugar":"town","atribucion_geometria":"© OpenStreetMap contributors","captaciones_publicadas":0,"caso":"Serranía de los Agataes","caudal_litros_segundo":null,"codigo_expediente":"CEI-101","estado_publicacion":"conteo_atribuido_sin_inventario_primario","fecha_corte":"2026-08-29","fuente":"Revista RAYA; inventario primario solicitado a la CAS","fuente_url":"https://revistaraya.com/empresarios-del-carbon-de-mercenarios-y-socios-de-narcos-amenazan-el-agua-de-la-paz-santander.html","geometria_fuente":"© OpenStreetMap contributors","geometria_fuente_url":"https://www.openstreetmap.org/node/703169171","geometria_representa":"ancla territorial OSM de contexto; no representa perímetro legal, intervención, agua, protección ni evento; no localiza hechos","licencia_geometria":"ODbL 1.0","licencia_geometria_url":"https://opendatacommons.org/licenses/odbl/1-0/","nombre":"Inventario primario de acueductos pendiente: Agataes","osm_id":703169171,"osm_timestamp":"2026-02-18T01:29:49Z","osm_tipo":"node","osm_version":11,"poblacion_abastecida":null,"tipo":"ficha_disponibilidad_agua"},"type":"Feature"},{"geometry":{"coordinates":[-84.333147,10.8882234],"type":"Point"},"properties":{"ancla_osm_nombre":"Crucitas","ancla_osm_tipo_lugar":"hamlet","atribucion_geometria":"© OpenStreetMap contributors","captaciones_publicadas":0,"caso":"Proyecto Minero Crucitas","caudal_litros_segundo":null,"codigo_expediente":"2594","estado_publicacion":"servicio_identificado_sin_recorte_vectorial","fecha_corte":"2026-08-29","fuente":"MINAE, Dirección de Agua, capacidades WMS archivadas","fuente_url":"https://mapas.da.go.cr/geopc.php?service=WMS&request=GetCapabilities&version=1.1.1","geometria_fuente":"© OpenStreetMap contributors","geometria_fuente_url":"https://www.openstreetmap.org/node/6225740676","geometria_representa":"ancla territorial OSM de contexto; no representa perímetro legal, intervención, agua, protección ni evento; no localiza hechos","licencia_geometria":"ODbL 1.0","licencia_geometria_url":"https://opendatacommons.org/licenses/odbl/1-0/","nombre":"Red hídrica vectorial pendiente: Crucitas","osm_id":6225740676,"osm_timestamp":"2026-05-29T21:28:43Z","osm_tipo":"node","osm_version":4,"tipo":"ficha_disponibilidad_agua"},"type":"Feature"}],"metadatos":{"advertencia":"Los dos puntos son anclas territoriales OSM. No representan captaciones. La cifra 17 conserva atribución a RAYA y carece de inventario primario.","estado_publicacion":"fichas_publicables;red_y_captaciones_no_publicadas","familia":"agua","fecha_corte":"2026-08-29","fuentes":[{"archivo":"datos/geo/fuentes/osm-anclas/la-paz-703169171.json","fecha":"2026-08-29","licencia_condicion":"ODbL 1.0; © OpenStreetMap contributors","sha256":"d476639d4c23ed08d40d0383ba13c897fde597fd649c5d0d0b9bfc21bd9b6d66","tamano_bytes":825,"url":"https://www.openstreetmap.org/node/703169171"},{"archivo":"datos/geo/fuentes/osm-anclas/crucitas-6225740676.json","fecha":"2026-08-29","licencia_condicion":"ODbL 1.0; © OpenStreetMap contributors","sha256":"d9130391b00dfd042f1b7f1fbb5790618d6fe87b7b561dd17b2339223db3e7aa","tamano_bytes":858,"url":"https://www.openstreetmap.org/node/6225740676"},{"archivo":"datos/geo/bloqueado.md","fecha":"2026-08-29","licencia_condicion":"Textos, cálculos, esquema y metadatos propios: CC BY 4.0; código sin licencia de reutilización declarada. Datos o geometrías fuente conservan sus condiciones","sha256":"1283cb8d2dace7d7536635c01232ab3e7cca6bdddbc42fb5c97c751d07ba4121","tamano_bytes":9717,"url":"https://revistaraya.com/empresarios-del-carbon-de-mercenarios-y-socios-de-narcos-amenazan-el-agua-de-la-paz-santander.html"},{"archivo":"datos/geo/fuentes-oficiales-crucitas.json","fecha":"2026-08-29","licencia_condicion":"Textos, cálculos, esquema y metadatos propios: CC BY 4.0; código sin licencia de reutilización declarada. Datos o geometrías fuente conservan sus condiciones","sha256":"fb9dac25f59b73590d86bc4b022e77af41c26cd283ac22803d94bde3ef00615c","tamano_bytes":3505,"url":"https://mapas.da.go.cr/geopc.php?service=WMS&request=GetCapabilities&version=1.1.1"}],"id":"agua-estado","privacidad":"cero coordenadas de viviendas, líderes o captaciones"},"name":"agua-estado","type":"FeatureCollection"}
