{"crs":{"properties":{"name":"urn:ogc:def:crs:OGC:1.3:CRS84"},"type":"name"},"features":[],"metadatos":{"advertencia":"No se calculan ni publican buffers: falta un perímetro base con licencia afirmativa que permita su redistribución y la de geometrías derivadas.","buffers_publicados":0,"estado_publicacion":"buffer_no_calculable_sin_perimetro_redistribuible","familia":"buffers","fecha_corte":"2026-08-29","fuentes":[{"archivo":"datos/geo/bloqueado.md","fecha":"2026-08-29","licencia_condicion":"Textos, cálculos, esquema y metadatos propios: CC BY 4.0; código sin licencia de reutilización declarada. Datos o geometrías fuente conservan sus condiciones","sha256":"1283cb8d2dace7d7536635c01232ab3e7cca6bdddbc42fb5c97c751d07ba4121","tamano_bytes":9717,"url":"https://geo.anm.gov.co/webgis/rest/services/ANM/ServiciosANM/MapServer/4?f=pjson"}],"id":"buffers-no-calculables","radios_documentados_km":[5,10,25]},"name":"buffers-no-calculables","type":"FeatureCollection"}
