{"crs":{"properties":{"name":"urn:ogc:def:crs:OGC:1.3:CRS84"},"type":"name"},"features":[{"geometry":{"coordinates":[-74.4738996,8.2956227],"type":"Point"},"properties":{"ancla_osm_nombre":"Montecristo","ancla_osm_tipo_lugar":"town","atribucion_geometria":"© OpenStreetMap contributors","caso":"Mina Walter, Alto Caribona","codigo_expediente":"JG4-16531","delta_ha":null,"estado_publicacion":"no_estimable_no_atribuible","fecha_corte":"2026-08-29","fuente":"Validación geoespacial reproducible del estudio","fuente_url":"https://geo.anm.gov.co/webgis/rest/services/ANM/ServiciosANM/MapServer/4?f=pjson","geometria_fuente":"© OpenStreetMap contributors","geometria_fuente_url":"https://www.openstreetmap.org/node/703209601","geometria_representa":"ancla territorial OSM de contexto; no representa perímetro legal, intervención, agua, protección ni evento; no localiza hechos","licencia_geometria":"ODbL 1.0","licencia_geometria_url":"https://opendatacommons.org/licenses/odbl/1-0/","nombre":"Estado del delta: Mina Walter, Alto Caribona","osm_id":703209601,"osm_timestamp":"2026-02-18T01:29:49Z","osm_tipo":"node","osm_version":8,"sigma_delta_ha":null,"tipo":"ficha_disponibilidad_delta","veredicto":"La huella y el delta de Mina Walter no son estimables: falta la geometría oficial de SF_40/JG4-16531-003 y JG4-16531 contiene varios frentes. El cambio observado sobre el título matriz carece de atribución causal."},"type":"Feature"},{"geometry":{"coordinates":[-73.5895841,6.1785935],"type":"Point"},"properties":{"ancla_osm_nombre":"La Paz","ancla_osm_tipo_lugar":"town","atribucion_geometria":"© OpenStreetMap contributors","caso":"Serranía de los Agataes","codigo_expediente":"CEI-101","delta_ha":null,"estado_publicacion":"no_estimable_no_atribuible","fecha_corte":"2026-08-29","fuente":"Validación geoespacial reproducible del estudio","fuente_url":"https://geo.anm.gov.co/webgis/rest/services/ANM/ServiciosANM/MapServer/4?f=pjson","geometria_fuente":"© OpenStreetMap contributors","geometria_fuente_url":"https://www.openstreetmap.org/node/703169171","geometria_representa":"ancla territorial OSM de contexto; no representa perímetro legal, intervención, agua, protección ni evento; no localiza hechos","licencia_geometria":"ODbL 1.0","licencia_geometria_url":"https://opendatacommons.org/licenses/odbl/1-0/","nombre":"Estado del delta: Serranía de los Agataes","osm_id":703169171,"osm_timestamp":"2026-02-18T01:29:49Z","osm_tipo":"node","osm_version":11,"sigma_delta_ha":null,"tipo":"ficha_disponibilidad_delta","veredicto":"No se confirmó una huella superficial minera nueva de al menos 0,20 ha en las muestras de CEI-101. El recobrado quedó sin estimar; la observación no demuestra ausencia y no permite declarar delta cero."},"type":"Feature"},{"geometry":{"coordinates":[-84.333147,10.8882234],"type":"Point"},"properties":{"advertencia":"34,04 ha es intervención reportada, no delta. El punto no es el polígono. Faltan la geometría DGM y el snapshot catastral completo de 2018.","alcance":"área agregada de intervención reportada por DGM al 31-12-2018","ancla_osm_nombre":"Crucitas","ancla_osm_tipo_lugar":"hamlet","area_intervencion_reportada_ha":34.04,"atribucion_geometria":"© OpenStreetMap contributors","caso":"Proyecto Minero Crucitas","codigo_expediente":"2594","definicion":"area(R_DGM ∖ L_2018) / 10.000","delta_ha":null,"estado_publicacion":"delta_no_estimable;area_reportada_publicable_sin_geometria","fecha_corte":"2018-12-31","fuente":"Sentencias 04399-2010 y 20047-2021, Poder Judicial de Costa Rica","fuente_url":"https://nexuspj.poder-judicial.go.cr/document/sen-1-0007-1063879","geometria_fuente":"© OpenStreetMap contributors","geometria_fuente_url":"https://www.openstreetmap.org/node/6225740676","geometria_representa":"ancla territorial OSM de contexto; no representa perímetro legal, intervención, agua, protección ni evento; no localiza hechos","licencia_geometria":"ODbL 1.0","licencia_geometria_url":"https://opendatacommons.org/licenses/odbl/1-0/","nombre":"Delta pendiente de Crucitas; área DGM reportada disponible","osm_id":6225740676,"osm_timestamp":"2026-05-29T21:28:43Z","osm_tipo":"node","osm_version":4,"sigma_delta_ha":null,"tipo":"ficha_disponibilidad_delta"},"type":"Feature"}],"metadatos":{"advertencia":"Los tres deltas están sin calcular. Las geometrías son fichas puntuales, no deltas espaciales.","estado_publicacion":"tres_deltas_no_estimables;una_area_dgm_reportada","familia":"delta","fecha_corte":"2026-08-29","fuentes":[{"archivo":"datos/geo/fuentes/osm-anclas/montecristo-703209601.json","fecha":"2026-08-29","licencia_condicion":"ODbL 1.0; © OpenStreetMap contributors","sha256":"f5ba21805a347daa949b861ea6ffc415017bf2635fa5fe778d17fb08d5571edf","tamano_bytes":669,"url":"https://www.openstreetmap.org/node/703209601"},{"archivo":"datos/geo/fuentes/osm-anclas/la-paz-703169171.json","fecha":"2026-08-29","licencia_condicion":"ODbL 1.0; © OpenStreetMap contributors","sha256":"d476639d4c23ed08d40d0383ba13c897fde597fd649c5d0d0b9bfc21bd9b6d66","tamano_bytes":825,"url":"https://www.openstreetmap.org/node/703169171"},{"archivo":"datos/geo/fuentes/osm-anclas/crucitas-6225740676.json","fecha":"2026-08-29","licencia_condicion":"ODbL 1.0; © OpenStreetMap contributors","sha256":"d9130391b00dfd042f1b7f1fbb5790618d6fe87b7b561dd17b2339223db3e7aa","tamano_bytes":858,"url":"https://www.openstreetmap.org/node/6225740676"},{"archivo":"datos/geo/delta-documentado-crucitas.json","fecha":"2026-08-29","licencia_condicion":"Textos, cálculos, esquema y metadatos propios: CC BY 4.0; código sin licencia de reutilización declarada. Datos o geometrías fuente conservan sus condiciones","sha256":"86e9edf43b5648414eb3ae1b2a129ec1320388019026c3287a35c8148e42fe04","tamano_bytes":3869,"url":"https://nexuspj.poder-judicial.go.cr/document/sen-1-0007-1063879"},{"archivo":"datos/geo/resultados-huellas-colombia.json","fecha":"2026-08-29","licencia_condicion":"Textos, cálculos, esquema y metadatos propios: CC BY 4.0; código sin licencia de reutilización declarada. Datos o geometrías fuente conservan sus condiciones","sha256":"a75cabdf4413b33f0d17b6423f6ad57166e090b28a8ea341719bcf60e805dea2","tamano_bytes":19837,"url":"https://geo.anm.gov.co/webgis/rest/services/ANM/ServiciosANM/MapServer/4?f=pjson"}],"id":"delta-estado","unidad":"ha"},"name":"delta-estado","type":"FeatureCollection"}
