{"crs":{"properties":{"name":"urn:ogc:def:crs:OGC:1.3:CRS84"},"type":"name"},"features":[{"geometry":{"coordinates":[-74.4738996,8.2956227],"type":"Point"},"properties":{"ancla_osm_nombre":"Montecristo","ancla_osm_tipo_lugar":"town","anio":2008,"atribucion_geometria":"© OpenStreetMap contributors","caso":"Mina Walter, Alto Caribona","codigo_expediente":"JG4-16531","evento":"Inscripción registral del expediente JG4-16531","fecha":"2008-10-07","fuente":"ANM Títulos Mineros Anotaciones RMN","fuente_url":"https://www.datos.gov.co/api/views/si2v-pbq5","geometria_fuente":"© OpenStreetMap contributors","geometria_fuente_url":"https://www.openstreetmap.org/node/703209601","geometria_representa":"ancla territorial OSM de contexto; no representa perímetro legal, intervención, agua, protección ni evento; no localiza hechos","licencia_geometria":"ODbL 1.0","licencia_geometria_url":"https://opendatacommons.org/licenses/odbl/1-0/","nombre":"Inscripción registral del expediente JG4-16531","osm_id":703209601,"osm_timestamp":"2026-02-18T01:29:49Z","osm_tipo":"node","osm_version":8,"precision_ubicacion":"ancla territorial OSM; el acto documental no tiene una coordenada de ocurrencia","tipo":"hito_documental"},"type":"Feature"},{"geometry":{"coordinates":[-73.5895841,6.1785935],"type":"Point"},"properties":{"ancla_osm_nombre":"La Paz","ancla_osm_tipo_lugar":"town","anio":2005,"atribucion_geometria":"© OpenStreetMap contributors","caso":"Serranía de los Agataes","codigo_expediente":"CEI-101","evento":"Inscripción registral del expediente CEI-101","fecha":"2005-10-20","fuente":"ANM Títulos Mineros Anotaciones RMN","fuente_url":"https://www.datos.gov.co/api/views/si2v-pbq5","geometria_fuente":"© OpenStreetMap contributors","geometria_fuente_url":"https://www.openstreetmap.org/node/703169171","geometria_representa":"ancla territorial OSM de contexto; no representa perímetro legal, intervención, agua, protección ni evento; no localiza hechos","licencia_geometria":"ODbL 1.0","licencia_geometria_url":"https://opendatacommons.org/licenses/odbl/1-0/","nombre":"Inscripción registral del expediente CEI-101","osm_id":703169171,"osm_timestamp":"2026-02-18T01:29:49Z","osm_tipo":"node","osm_version":11,"precision_ubicacion":"ancla territorial OSM; el acto documental no tiene una coordenada de ocurrencia","tipo":"hito_documental"},"type":"Feature"},{"geometry":{"coordinates":[-84.333147,10.8882234],"type":"Point"},"properties":{"ancla_osm_nombre":"Crucitas","ancla_osm_tipo_lugar":"hamlet","anio":2010,"atribucion_geometria":"© OpenStreetMap contributors","caso":"Proyecto Minero Crucitas","codigo_expediente":"2594","evento":"Sentencia 04399-2010 ordena cancelar la concesión 2594","fecha":"2010-12-14","fuente":"Tribunal Contencioso Administrativo de Costa Rica","fuente_url":"https://nexuspj.poder-judicial.go.cr/document/sen-1-0034-552000","geometria_fuente":"© OpenStreetMap contributors","geometria_fuente_url":"https://www.openstreetmap.org/node/6225740676","geometria_representa":"ancla territorial OSM de contexto; no representa perímetro legal, intervención, agua, protección ni evento; no localiza hechos","licencia_geometria":"ODbL 1.0","licencia_geometria_url":"https://opendatacommons.org/licenses/odbl/1-0/","nombre":"Sentencia 04399-2010 ordena cancelar la concesión 2594","osm_id":6225740676,"osm_timestamp":"2026-05-29T21:28:43Z","osm_tipo":"node","osm_version":4,"precision_ubicacion":"ancla territorial OSM; el acto documental no tiene una coordenada de ocurrencia","tipo":"hito_documental"},"type":"Feature"},{"geometry":{"coordinates":[-84.333147,10.8882234],"type":"Point"},"properties":{"ancla_osm_nombre":"Crucitas","ancla_osm_tipo_lugar":"hamlet","anio":2018,"atribucion_geometria":"© OpenStreetMap contributors","caso":"Proyecto Minero Crucitas","codigo_expediente":"2594","evento":"Corte del informe DGM que registra 34,04 ha acumuladas","fecha":"2018-12-31","fuente":"Resolución 20047-2021, Sala Constitucional de Costa Rica","fuente_url":"https://nexuspj.poder-judicial.go.cr/document/sen-1-0007-1063879","geometria_fuente":"© OpenStreetMap contributors","geometria_fuente_url":"https://www.openstreetmap.org/node/6225740676","geometria_representa":"ancla territorial OSM de contexto; no representa perímetro legal, intervención, agua, protección ni evento; no localiza hechos","licencia_geometria":"ODbL 1.0","licencia_geometria_url":"https://opendatacommons.org/licenses/odbl/1-0/","nombre":"Corte del informe DGM que registra 34,04 ha acumuladas","osm_id":6225740676,"osm_timestamp":"2026-05-29T21:28:43Z","osm_tipo":"node","osm_version":4,"precision_ubicacion":"ancla territorial OSM; el acto documental no tiene una coordenada de ocurrencia","tipo":"hito_documental"},"type":"Feature"}],"metadatos":{"advertencia":"Las anclas OSM dan contexto territorial; no geolocalizan el acto ni una persona.","estado_publicacion":"publicable_como_cronologia_documental","familia":"eventos","fecha_corte":"2026-08-29","fuentes":[{"archivo":"datos/geo/fuentes/osm-anclas/montecristo-703209601.json","fecha":"2026-08-29","licencia_condicion":"ODbL 1.0; © OpenStreetMap contributors","sha256":"f5ba21805a347daa949b861ea6ffc415017bf2635fa5fe778d17fb08d5571edf","tamano_bytes":669,"url":"https://www.openstreetmap.org/node/703209601"},{"archivo":"datos/geo/fuentes/osm-anclas/la-paz-703169171.json","fecha":"2026-08-29","licencia_condicion":"ODbL 1.0; © OpenStreetMap contributors","sha256":"d476639d4c23ed08d40d0383ba13c897fde597fd649c5d0d0b9bfc21bd9b6d66","tamano_bytes":825,"url":"https://www.openstreetmap.org/node/703169171"},{"archivo":"datos/geo/fuentes/osm-anclas/crucitas-6225740676.json","fecha":"2026-08-29","licencia_condicion":"ODbL 1.0; © OpenStreetMap contributors","sha256":"d9130391b00dfd042f1b7f1fbb5790618d6fe87b7b561dd17b2339223db3e7aa","tamano_bytes":858,"url":"https://www.openstreetmap.org/node/6225740676"},{"archivo":"datos/geo/fuentes/crucitas-sentencia-04399-2010.json","fecha":"2026-08-29","licencia_condicion":"Decisión judicial pública","sha256":"a692e6f5e835a80604adbe9db312984d16d75853a58b0eade02011b698bed4a4","tamano_bytes":1415258,"url":"https://nexuspj.poder-judicial.go.cr/document/sen-1-0034-552000"},{"archivo":"datos/geo/fuentes/crucitas-sentencia-20047-2021.json","fecha":"2026-08-29","licencia_condicion":"Decisión judicial pública","sha256":"a880e430f9a942812864b6af34f5790ae5e066b0fa9d9f816f55659fadffa7dd","tamano_bytes":714920,"url":"https://nexuspj.poder-judicial.go.cr/document/sen-1-0007-1063879"}],"id":"eventos-documentales"},"name":"eventos-documentales","type":"FeatureCollection"}
