{"crs":{"properties":{"name":"urn:ogc:def:crs:OGC:1.3:CRS84"},"type":"name"},"features":[{"geometry":{"coordinates":[[[-74.341,7.87199],[-74.341,7.87675],[-74.34185,7.87746],[-74.36128,7.85364],[-74.35784,7.85099],[-74.341,7.87199]]],"type":"Polygon"},"properties":{"advertencia":"Polígono servido por la ANM. Delimita el título inscrito, no la intervención observada ni la propiedad del suelo. La precisión posicional y la escala nominal no están declaradas por el servicio.","area_legal_ha":150.76,"codigo_expediente":"JG4-16531","crs_calculo_epsg":9377,"crs_visualizacion_epsg":4326,"fecha_corte":"2026-08-29","fuente":"ANM · Títulos Mineros (FeatureServer)","fuente_sha256":"f77b17c3ddf15413aed01e8e136e042b8fffe1feaec6474475843e3574dcf7e1","fuente_url":"https://geo.anm.gov.co/webgis/rest/services/Pruebas/Prueba_Geoservicios_13_MAY_2026_Pro_3_1/MapServer/2","nombre":"Perímetro legal: Mina Walter, Alto Caribona","pais":"Colombia","perimetro_legal_km":7.49,"precision_fuente":"Geometría vectorial publicada por la ANM; precisión posicional y escala nominal no declaradas en el servicio","tipo":"perimetro_legal_anm","vertices":6},"type":"Feature"},{"geometry":{"coordinates":[[[-73.60713,6.16934],[-73.61941,6.17508],[-73.63624,6.13904],[-73.62397,6.13329],[-73.60713,6.16934]]],"type":"Polygon"},"properties":{"advertencia":"Polígono servido por la ANM. Delimita el título inscrito, no la intervención observada ni la propiedad del suelo. La precisión posicional y la escala nominal no están declaradas por el servicio.","area_legal_ha":659.04,"codigo_expediente":"CEI-101","crs_calculo_epsg":9377,"crs_visualizacion_epsg":4326,"fecha_corte":"2026-08-29","fuente":"ANM · Títulos Mineros (FeatureServer)","fuente_sha256":"701273104a989833ee1fa01adbd07008d6e71713327305ddaf032fda3cc1ffc3","fuente_url":"https://geo.anm.gov.co/webgis/rest/services/Pruebas/Prueba_Geoservicios_13_MAY_2026_Pro_3_1/MapServer/2","nombre":"Perímetro legal: Serranía de los Agataes","pais":"Colombia","perimetro_legal_km":11.79,"precision_fuente":"Geometría vectorial publicada por la ANM; precisión posicional y escala nominal no declaradas en el servicio","tipo":"perimetro_legal_anm","vertices":5},"type":"Feature"},{"geometry":{"coordinates":[-74.4738996,8.2956227],"type":"Point"},"properties":{"ancla_osm_nombre":"Montecristo","ancla_osm_tipo_lugar":"town","atribucion_geometria":"© OpenStreetMap contributors","caso":"Mina Walter, Alto Caribona","codigo_expediente":"JG4-16531","estado_geometria_legal":"perimetro_no_redistribuido_sin_licencia_afirmativa","fecha_corte":"2026-08-29","fuente":"ANM Títulos Mineros Anotaciones RMN","fuente_url":"https://www.datos.gov.co/api/views/si2v-pbq5","geometria_fuente":"© OpenStreetMap contributors","geometria_fuente_url":"https://www.openstreetmap.org/node/703209601","geometria_representa":"ancla territorial OSM de contexto; no representa perímetro legal, intervención, agua, protección ni evento; no localiza hechos","licencia_geometria":"ODbL 1.0","licencia_geometria_url":"https://opendatacommons.org/licenses/odbl/1-0/","nombre":"Contexto territorial: Mina Walter, Alto Caribona","osm_id":703209601,"osm_timestamp":"2026-02-18T01:29:49Z","osm_tipo":"node","osm_version":8,"pais":"Colombia","precision_ubicacion":"localidad o cabecera OSM; no delimita el título, la concesión histórica ni su área","tipo":"ancla_territorial_contexto"},"type":"Feature"},{"geometry":{"coordinates":[-73.5895841,6.1785935],"type":"Point"},"properties":{"ancla_osm_nombre":"La Paz","ancla_osm_tipo_lugar":"town","atribucion_geometria":"© OpenStreetMap contributors","caso":"Serranía de los Agataes","codigo_expediente":"CEI-101","estado_geometria_legal":"perimetro_no_redistribuido_sin_licencia_afirmativa","fecha_corte":"2026-08-29","fuente":"ANM Títulos Mineros Anotaciones RMN","fuente_url":"https://www.datos.gov.co/api/views/si2v-pbq5","geometria_fuente":"© OpenStreetMap contributors","geometria_fuente_url":"https://www.openstreetmap.org/node/703169171","geometria_representa":"ancla territorial OSM de contexto; no representa perímetro legal, intervención, agua, protección ni evento; no localiza hechos","licencia_geometria":"ODbL 1.0","licencia_geometria_url":"https://opendatacommons.org/licenses/odbl/1-0/","nombre":"Contexto territorial: Serranía de los Agataes","osm_id":703169171,"osm_timestamp":"2026-02-18T01:29:49Z","osm_tipo":"node","osm_version":11,"pais":"Colombia","precision_ubicacion":"localidad o cabecera OSM; no delimita el título, la concesión histórica ni su área","tipo":"ancla_territorial_contexto"},"type":"Feature"},{"geometry":{"coordinates":[-84.333147,10.8882234],"type":"Point"},"properties":{"ancla_osm_nombre":"Crucitas","ancla_osm_tipo_lugar":"hamlet","atribucion_geometria":"© OpenStreetMap contributors","caso":"Proyecto Minero Crucitas","codigo_expediente":"2594","estado_geometria_legal":"perimetro_no_redistribuido_sin_licencia_afirmativa","fecha_corte":"2026-08-29","fuente":"Poder Judicial de Costa Rica","fuente_url":"https://nexuspj.poder-judicial.go.cr/document/sen-1-0034-552000","geometria_fuente":"© OpenStreetMap contributors","geometria_fuente_url":"https://www.openstreetmap.org/node/6225740676","geometria_representa":"ancla territorial OSM de contexto; no representa perímetro legal, intervención, agua, protección ni evento; no localiza hechos","licencia_geometria":"ODbL 1.0","licencia_geometria_url":"https://opendatacommons.org/licenses/odbl/1-0/","nombre":"Contexto territorial: Proyecto Minero Crucitas","osm_id":6225740676,"osm_timestamp":"2026-05-29T21:28:43Z","osm_tipo":"node","osm_version":4,"pais":"Costa Rica","precision_ubicacion":"localidad o cabecera OSM; no delimita el título, la concesión histórica ni su área","tipo":"ancla_territorial_contexto"},"type":"Feature"}],"metadatos":{"advertencia":"Dos polígonos reproducen la geometría ANM de JG4-16531 y CEI-101: delimitan el título inscrito, no la intervención observada, y el servicio no declara precisión ni escala. Crucitas conserva solo ancla OSM: su polígono dependería de suponer CRS y orden de ejes sobre vértices que la sentencia llama aproximados. Nada acredita vigencia ni asiento registral.","estado_publicacion":"anclas_osm_publicables;dos_perimetros_anm_publicados","familia":"legal","fecha_corte":"2026-08-29","fuentes":[{"archivo":"datos/geo/fuentes/osm-anclas/montecristo-703209601.json","fecha":"2026-08-29","licencia_condicion":"ODbL 1.0; © OpenStreetMap contributors","sha256":"f5ba21805a347daa949b861ea6ffc415017bf2635fa5fe778d17fb08d5571edf","tamano_bytes":669,"url":"https://www.openstreetmap.org/node/703209601"},{"archivo":"datos/geo/fuentes/osm-anclas/la-paz-703169171.json","fecha":"2026-08-29","licencia_condicion":"ODbL 1.0; © OpenStreetMap contributors","sha256":"d476639d4c23ed08d40d0383ba13c897fde597fd649c5d0d0b9bfc21bd9b6d66","tamano_bytes":825,"url":"https://www.openstreetmap.org/node/703169171"},{"archivo":"datos/geo/fuentes/osm-anclas/crucitas-6225740676.json","fecha":"2026-08-29","licencia_condicion":"ODbL 1.0; © OpenStreetMap contributors","sha256":"d9130391b00dfd042f1b7f1fbb5790618d6fe87b7b561dd17b2339223db3e7aa","tamano_bytes":858,"url":"https://www.openstreetmap.org/node/6225740676"}],"id":"legal","unidad":"punto territorial de contexto"},"name":"legal","type":"FeatureCollection"}
