{"crs":{"properties":{"name":"urn:ogc:def:crs:OGC:1.3:CRS84"},"type":"name"},"features":[{"geometry":{"coordinates":[-74.4738996,8.2956227],"type":"Point"},"properties":{"alcance":"El cero cubre únicamente áreas registradas en RUNAP al corte; páramo, reserva forestal, territorios colectivos y otras figuras siguen pendientes.","ancla_osm_nombre":"Montecristo","ancla_osm_tipo_lugar":"town","area_runap_mas_cercana":"Ciénagas Corrales y El Ocho","areas_runap_intersectadas":0,"atribucion_geometria":"© OpenStreetMap contributors","caso":"Mina Walter, Alto Caribona","categoria_runap_mas_cercana":"Distritos Regionales de Manejo Integrado","codigo_expediente":"JG4-16531","denominador_porcentaje":"area_titulo_calculada_ha","distancia_minima_runap_m":33712.15,"estado_publicacion":"runap_cruzado_sin_solape;otras_figuras_pendientes","fecha_corte":"2026-08-29","fuente":"Registro Único Nacional de Áreas Protegidas, paquete oficial","fuente_url":"https://storage.googleapis.com/pnn_geodatabase/runap/latest.zip","geometria_fuente":"© OpenStreetMap contributors","geometria_fuente_url":"https://www.openstreetmap.org/node/703209601","geometria_representa":"ancla territorial OSM de contexto; no representa perímetro legal, intervención, agua, protección ni evento; no localiza hechos","licencia_geometria":"ODbL 1.0","licencia_geometria_url":"https://opendatacommons.org/licenses/odbl/1-0/","nombre":"Cruce RUNAP: Mina Walter, Alto Caribona","osm_id":703209601,"osm_timestamp":"2026-02-18T01:29:49Z","osm_tipo":"node","osm_version":8,"sigma_posicional_m":null,"solape_ha":0.0,"solape_porcentaje":0.0,"tipo":"ficha_disponibilidad_proteccion"},"type":"Feature"},{"geometry":{"coordinates":[-73.5895841,6.1785935],"type":"Point"},"properties":{"alcance":"El cero cubre únicamente áreas registradas en RUNAP al corte; páramo, reserva forestal, territorios colectivos y otras figuras siguen pendientes.","ancla_osm_nombre":"La Paz","ancla_osm_tipo_lugar":"town","area_runap_mas_cercana":"Ojo de Agua","areas_runap_intersectadas":0,"atribucion_geometria":"© OpenStreetMap contributors","caso":"Serranía de los Agataes","categoria_runap_mas_cercana":"Reserva Natural de la Sociedad Civil","codigo_expediente":"CEI-101","denominador_porcentaje":"area_titulo_calculada_ha","distancia_minima_runap_m":5686.878,"estado_publicacion":"runap_cruzado_sin_solape;otras_figuras_pendientes","fecha_corte":"2026-08-29","fuente":"Registro Único Nacional de Áreas Protegidas, paquete oficial","fuente_url":"https://storage.googleapis.com/pnn_geodatabase/runap/latest.zip","geometria_fuente":"© OpenStreetMap contributors","geometria_fuente_url":"https://www.openstreetmap.org/node/703169171","geometria_representa":"ancla territorial OSM de contexto; no representa perímetro legal, intervención, agua, protección ni evento; no localiza hechos","licencia_geometria":"ODbL 1.0","licencia_geometria_url":"https://opendatacommons.org/licenses/odbl/1-0/","nombre":"Cruce RUNAP: Serranía de los Agataes","osm_id":703169171,"osm_timestamp":"2026-02-18T01:29:49Z","osm_tipo":"node","osm_version":11,"sigma_posicional_m":null,"solape_ha":0.0,"solape_porcentaje":0.0,"tipo":"ficha_disponibilidad_proteccion"},"type":"Feature"},{"geometry":{"coordinates":[-84.333147,10.8882234],"type":"Point"},"properties":{"ancla_osm_nombre":"Crucitas","ancla_osm_tipo_lugar":"hamlet","atribucion_geometria":"© OpenStreetMap contributors","caso":"Proyecto Minero Crucitas","codigo_expediente":"2594","estado_publicacion":"sin_recorte_vectorial_verificado","fecha_corte":"2026-08-29","fuente":"MINAE/SINAC/SIREFOR, geoservicio oficial","fuente_url":"https://www.sirefor.go.cr/GeoserviciosSIREFOR/wfs?service=WFS&request=GetCapabilities&version=2.0.0","geometria_fuente":"© OpenStreetMap contributors","geometria_fuente_url":"https://www.openstreetmap.org/node/6225740676","geometria_representa":"ancla territorial OSM de contexto; no representa perímetro legal, intervención, agua, protección ni evento; no localiza hechos","licencia_geometria":"ODbL 1.0","licencia_geometria_url":"https://opendatacommons.org/licenses/odbl/1-0/","nombre":"Cruce de protección pendiente: Crucitas","osm_id":6225740676,"osm_timestamp":"2026-05-29T21:28:43Z","osm_tipo":"node","osm_version":4,"solape_ha":null,"solape_porcentaje":null,"tipo":"ficha_disponibilidad_proteccion"},"type":"Feature"}],"metadatos":{"advertencia":"Los títulos colombianos no intersectan RUNAP en el corte. El resultado no cubre páramos, reserva forestal, territorios colectivos u otras figuras. Cero polígonos de protección se redistribuyen.","estado_publicacion":"runap_calculado_colombia;sinac_y_otras_figuras_pendientes","familia":"proteccion","fecha_corte":"2026-08-29","fuentes":[{"archivo":"datos/geo/fuentes/osm-anclas/montecristo-703209601.json","fecha":"2026-08-29","licencia_condicion":"ODbL 1.0; © OpenStreetMap contributors","sha256":"f5ba21805a347daa949b861ea6ffc415017bf2635fa5fe778d17fb08d5571edf","tamano_bytes":669,"url":"https://www.openstreetmap.org/node/703209601"},{"archivo":"datos/geo/fuentes/osm-anclas/la-paz-703169171.json","fecha":"2026-08-29","licencia_condicion":"ODbL 1.0; © OpenStreetMap contributors","sha256":"d476639d4c23ed08d40d0383ba13c897fde597fd649c5d0d0b9bfc21bd9b6d66","tamano_bytes":825,"url":"https://www.openstreetmap.org/node/703169171"},{"archivo":"datos/geo/fuentes/osm-anclas/crucitas-6225740676.json","fecha":"2026-08-29","licencia_condicion":"ODbL 1.0; © OpenStreetMap contributors","sha256":"d9130391b00dfd042f1b7f1fbb5790618d6fe87b7b561dd17b2339223db3e7aa","tamano_bytes":858,"url":"https://www.openstreetmap.org/node/6225740676"},{"archivo":"fuentes/runap/geoservicio-iteminfo.json","fecha":"2026-08-29","licencia_condicion":"Metadato oficial PNNC; licencia no declarada en itemInfo","sha256":"d5885ae81c5f8a4a77ca6ccf442cb8a89be61cd5b92dc66fdc50ac0c68cecc25","tamano_bytes":1023,"url":"https://mapas.parquesnacionales.gov.co/arcgis/rest/services/pnn/runap/FeatureServer/info/iteminfo?f=pjson"},{"archivo":"datos/geo/fuentes-oficiales-crucitas.json","fecha":"2026-08-29","licencia_condicion":"Textos, cálculos, esquema y metadatos propios: CC BY 4.0; código sin licencia de reutilización declarada. Datos o geometrías fuente conservan sus condiciones","sha256":"fb9dac25f59b73590d86bc4b022e77af41c26cd283ac22803d94bde3ef00615c","tamano_bytes":3505,"url":"https://www.sirefor.go.cr/GeoserviciosSIREFOR/wfs?service=WFS&request=GetCapabilities&version=2.0.0"},{"archivo":"datos/geo/fuentes/runap/manifiesto.json","fecha":"2026-08-29","licencia_condicion":"Metadato propio sobre paquete oficial; polígonos no redistribuidos","sha256":"f8dd2a1de5ca9b8d9a63df0067c12d141b0fd492878ad26d18e6468b9099bfea","tamano_bytes":1572,"url":"https://storage.googleapis.com/pnn_geodatabase/runap/latest.zip"},{"archivo":"datos/geo/resultados-runap.json","fecha":"2026-08-29","licencia_condicion":"Textos, cálculos, esquema y metadatos propios: CC BY 4.0; código sin licencia de reutilización declarada. Datos o geometrías fuente conservan sus condiciones","sha256":"bf43fd4b0aff722f973ee177131f71601d0993558c2217fbb91583cd8bad867a","tamano_bytes":3703,"url":"https://storage.googleapis.com/pnn_geodatabase/runap/latest.zip"}],"id":"proteccion-estado","paquete_runap":{"captura_utc":"2026-08-29T13:04:47Z","crs_calculo":"EPSG:9377","crs_fuente":"EPSG:4686","entidades":1908,"geometrias_redistribuidas":0,"licencia_condicion":"La autoridad y el enlace de descarga son oficiales; itemInfo no declara licencia de reutilización. El paquete crudo y sus polígonos no se redistribuyen.","sha256":"1d4f55d16a1510c2b0376e566f98c9fe9af9c0b6cb4ff01ed4d0da08c638b0b6","tamano_bytes":69828518,"ultima_modificacion_utc":"2026-08-21T21:17:53Z","url":"https://storage.googleapis.com/pnn_geodatabase/runap/latest.zip"}},"name":"proteccion-estado","type":"FeatureCollection"}
