{"crs":{"properties":{"name":"urn:ogc:def:crs:OGC:1.3:CRS84"},"type":"name"},"features":[],"metadatos":{"advertencia":"D, H, A, P y C carecen de series georreferenciadas compatibles. No se crea una grilla y null no se interpreta como 0.","celdas_publicadas":0,"escenarios_pesos":[{"alcance":"sensibilidad declarada; resultado nulo hasta obtener las cinco variables","id":"bajo","nombre":"Violencia y desplazamiento","pesos":{"w1":0.3,"w2":0.3,"w3":0.15,"w4":0.1,"w5":0.15}},{"alcance":"escenario base; resultado nulo hasta obtener las cinco variables","id":"base","nombre":"Pesos iguales","pesos":{"w1":0.2,"w2":0.2,"w3":0.2,"w4":0.2,"w5":0.2}},{"alcance":"sensibilidad declarada; resultado nulo hasta obtener las cinco variables","id":"alto","nombre":"Agua y protección","pesos":{"w1":0.1,"w2":0.1,"w3":0.35,"w4":0.35,"w5":0.1}}],"estado_publicacion":"indice_no_calculable","familia":"tension","fecha_corte":"2026-08-29","fuentes":[{"archivo":"datos/geo/resultados-huellas-colombia.json","fecha":"2026-08-29","licencia_condicion":"Textos, cálculos, esquema y metadatos propios: CC BY 4.0; código sin licencia de reutilización declarada. Datos o geometrías fuente conservan sus condiciones","sha256":"a75cabdf4413b33f0d17b6423f6ad57166e090b28a8ea341719bcf60e805dea2","tamano_bytes":19837,"url":"https://geo.anm.gov.co/webgis/rest/services/ANM/ServiciosANM/MapServer/4?f=pjson"},{"archivo":"fuentes/runap/geoservicio-iteminfo.json","fecha":"2026-08-29","licencia_condicion":"Metadato oficial PNNC; licencia no declarada en itemInfo","sha256":"d5885ae81c5f8a4a77ca6ccf442cb8a89be61cd5b92dc66fdc50ac0c68cecc25","tamano_bytes":1023,"url":"https://mapas.parquesnacionales.gov.co/arcgis/rest/services/pnn/runap/FeatureServer/info/iteminfo?f=pjson"},{"archivo":"datos/geo/bloqueado.md","fecha":"2026-08-29","licencia_condicion":"Textos, cálculos, esquema y metadatos propios: CC BY 4.0; código sin licencia de reutilización declarada. Datos o geometrías fuente conservan sus condiciones","sha256":"1283cb8d2dace7d7536635c01232ab3e7cca6bdddbc42fb5c97c751d07ba4121","tamano_bytes":9717,"url":"https://revistaraya.com/empresarios-del-carbon-de-mercenarios-y-socios-de-narcos-amenazan-el-agua-de-la-paz-santander.html"}],"id":"tension-no-calculable","metrica":"T(i) = w1·D(i) + w2·H(i) + w3·A(i) + w4·P(i) + w5·C(i)","pesos_base":{"w1":0.2,"w2":0.2,"w3":0.2,"w4":0.2,"w5":0.2},"unidad_celda_m":500,"variables":{"A":null,"C":null,"D":null,"H":null,"P":null}},"name":"tension-no-calculable","type":"FeatureCollection"}
